[{"OBJECT_NAME":"AQUA","OBJECT_ID":"2002-022A","EPOCH":"2026-03-09T23:03:04.467168","MEAN_MOTION":14.6197796,"ECCENTRICITY":5.597e-5,"INCLINATION":98.4175,"RA_OF_ASC_NODE":36.3303,"ARG_OF_PERICENTER":81.6608,"MEAN_ANOMALY":350.7427,"EPHEMERIS_TYPE":0,"CLASSIFICATION_TYPE":"U","NORAD_CAT_ID":27424,"ELEMENT_SET_NO":999,"REV_AT_EPOCH":26877,"BSTAR":0.00028652441,"MEAN_MOTION_DOT":1.387e-5,"MEAN_MOTION_DDOT":0},{"OBJECT_NAME":"EXPLORER 30","OBJECT_ID":"1965-093A","EPOCH":"2026-03-09T23:21:49.908384","MEAN_MOTION":14.41788302,"ECCENTRICITY":0.01224855,"INCLINATION":59.707,"RA_OF_ASC_NODE":222.4258,"ARG_OF_PERICENTER":307.0343,"MEAN_ANOMALY":51.954,"EPHEMERIS_TYPE":0,"CLASSIFICATION_TYPE":"U","NORAD_CAT_ID":1738,"ELEMENT_SET_NO":999,"REV_AT_EPOCH":14208,"BSTAR":7.9134163e-5,"MEAN_MOTION_DOT":1.27e-6,"MEAN_MOTION_DDOT":0}]
